[{"OBJECT_NAME":"STARLINK-5528","OBJECT_ID":"2023-083Q","EPOCH":"2026-03-09T10:27:38.287584","MEAN_MOTION":15.02541661,"ECCENTRICITY":9.055e-5,"INCLINATION":43.0025,"RA_OF_ASC_NODE":83.0319,"ARG_OF_PERICENTER":297.633,"MEAN_ANOMALY":62.442,"EPHEMERIS_TYPE":0,"CLASSIFICATION_TYPE":"U","NORAD_CAT_ID":56890,"ELEMENT_SET_NO":999,"REV_AT_EPOCH":15163,"BSTAR":-8.8718872e-5,"MEAN_MOTION_DOT":-1.402e-5,"MEAN_MOTION_DDOT":0},{"OBJECT_NAME":"COSMOS 886 DEB","OBJECT_ID":"1976-126AR","EPOCH":"2026-03-09T21:36:12.993696","MEAN_MOTION":13.31800165,"ECCENTRICITY":0.07768266,"INCLINATION":65.8223,"RA_OF_ASC_NODE":335.2921,"ARG_OF_PERICENTER":140.8231,"MEAN_ANOMALY":225.1777,"EPHEMERIS_TYPE":0,"CLASSIFICATION_TYPE":"U","NORAD_CAT_ID":9951,"ELEMENT_SET_NO":999,"REV_AT_EPOCH":4670,"BSTAR":0.00068514651,"MEAN_MOTION_DOT":1.806e-5,"MEAN_MOTION_DDOT":0}]
